start=new Date('2022-07-26T00:00:00.000Z').valueOf();
sats=[{"LAUNCH_DATE":"2022-02-25","CENTER_NAME":"EARTH","BSTAR":"0.00060353000000","SITE":"AFWTR","COUNTRY_CODE":"US","PERIOD":"95.437","GP_ID":"208834779","EPOCH":"2022-07-25T22:00:00.999936","OBJECT_ID":"2022-017AL","REV_AT_EPOCH":"2422","MEAN_MOTION":"15.08849477","PERIAPSIS":"538.058","INCLINATION":"53.2172","NORAD_CAT_ID":"51802","REF_FRAME":"TEME","RCS_SIZE":"LARGE","ECCENTRICITY":"0.00023970","OBJECT_NAME":"STARLINK-3557","ARG_OF_PERICENTER":"56.3458","TIME_SYSTEM":"UTC","TLE_LINE1":"1 51802U 22017AL  22206.91667824  .00009333  00000-0  60353-3 0  9991","MEAN_MOTION_DDOT":"0.0000000000000","EPHEMERIS_TYPE":"0","SEMIMAJOR_AXIS":"6917.851","DECAY_DATE":null,"FILE":"3521464","CLASSIFICATION_TYPE":"U","APOAPSIS":"541.375","ELEMENT_SET_NO":"999","MEAN_MOTION_DOT":"0.00009333","MEAN_ELEMENT_THEORY":"SGP4","RA_OF_ASC_NODE":"167.2888","TLE_LINE2":"2 51802  53.2172 167.2888 0002397  56.3458  81.6845 15.08849477 24225","OBJECT_TYPE":"PAYLOAD","MEAN_ANOMALY":"81.6845"},{"GP_ID":"208863083","EPOCH":"2022-07-25T22:00:00.999936","OBJECT_ID":"2022-017AM","MEAN_MOTION":"15.08847868","REV_AT_EPOCH":"130","INCLINATION":"53.2147","PERIAPSIS":"538.338","NORAD_CAT_ID":"51803","REF_FRAME":"TEME","ECCENTRICITY":"0.00019990","RCS_SIZE":"LARGE","LAUNCH_DATE":"2022-02-25","CENTER_NAME":"EARTH","BSTAR":"0.00058096000000","SITE":"AFWTR","COUNTRY_CODE":"US","PERIOD":"95.437","SEMIMAJOR_AXIS":"6917.856","EPHEMERIS_TYPE":"0","DECAY_DATE":null,"FILE":"3521711","APOAPSIS":"541.104","ELEMENT_SET_NO":"999","CLASSIFICATION_TYPE":"U","MEAN_MOTION_DOT":"0.00008972","RA_OF_ASC_NODE":"167.2751","MEAN_ELEMENT_THEORY":"SGP4","TLE_LINE2":"2 51803  53.2147 167.2751 0001999  54.4425 248.8926 15.08847868  1300","OBJECT_TYPE":"PAYLOAD","MEAN_ANOMALY":"248.8926","OBJECT_NAME":"STARLINK-3544","ARG_OF_PERICENTER":"54.4425","TIME_SYSTEM":"UTC","TLE_LINE1":"1 51803U 22017AM  22206.91667824  .00008972  00000-0  58096-3 0  9991","MEAN_MOTION_DDOT":"0.0000000000000"},{"OBJECT_ID":"2022-017AN","MEAN_MOTION":"15.08850823","REV_AT_EPOCH":"130","EPOCH":"2022-07-25T22:00:00.999936","GP_ID":"208863333","ECCENTRICITY":"0.00013780","RCS_SIZE":"LARGE","NORAD_CAT_ID":"51804","REF_FRAME":"TEME","PERIAPSIS":"538.759","INCLINATION":"53.2169","SITE":"AFWTR","BSTAR":"-0.00064839000000","CENTER_NAME":"EARTH","LAUNCH_DATE":"2022-02-25","PERIOD":"95.437","COUNTRY_CODE":"US","APOAPSIS":"540.666","ELEMENT_SET_NO":"999","CLASSIFICATION_TYPE":"U","FILE":"3521711","SEMIMAJOR_AXIS":"6917.847","EPHEMERIS_TYPE":"0","DECAY_DATE":null,"MEAN_ANOMALY":"145.7854","OBJECT_TYPE":"PAYLOAD","TLE_LINE2":"2 51804  53.2169 147.2671 0001378  87.5001 145.7854 15.08850823  1302","MEAN_MOTION_DOT":"-0.00010595","MEAN_ELEMENT_THEORY":"SGP4","RA_OF_ASC_NODE":"147.2671","TLE_LINE1":"1 51804U 22017AN  22206.91667824 -.00010595  00000-0 -64839-3 0  9990","TIME_SYSTEM":"UTC","ARG_OF_PERICENTER":"87.5001","OBJECT_NAME":"STARLINK-3601","MEAN_MOTION_DDOT":"0.0000000000000"},{"OBJECT_ID":"2022-017AP","REV_AT_EPOCH":"2454","MEAN_MOTION":"15.08846014","EPOCH":"2022-07-25T22:00:00.999936","GP_ID":"208834823","RCS_SIZE":"LARGE","ECCENTRICITY":"0.00018560","NORAD_CAT_ID":"51805","REF_FRAME":"TEME","INCLINATION":"53.2153","PERIAPSIS":"538.443","SITE":"AFWTR","BSTAR":"-0.00065917000000","CENTER_NAME":"EARTH","LAUNCH_DATE":"2022-02-25","PERIOD":"95.437","COUNTRY_CODE":"US","APOAPSIS":"541.011","ELEMENT_SET_NO":"999","CLASSIFICATION_TYPE":"U","FILE":"3521468","SEMIMAJOR_AXIS":"6917.862","EPHEMERIS_TYPE":"0","DECAY_DATE":null,"MEAN_ANOMALY":"196.0542","OBJECT_TYPE":"PAYLOAD","TLE_LINE2":"2 51805  53.2153 147.2757 0001856  57.2633 196.0542 15.08846014 24548","MEAN_MOTION_DOT":"-0.00010765","MEAN_ELEMENT_THEORY":"SGP4","RA_OF_ASC_NODE":"147.2757","TLE_LINE1":"1 51805U 22017AP  22206.91667824 -.00010765  00000-0 -65917-3 0  9998","TIME_SYSTEM":"UTC","OBJECT_NAME":"STARLINK-3605","ARG_OF_PERICENTER":"57.2633","MEAN_MOTION_DDOT":"0.0000000000000"},{"MEAN_ANOMALY":"124.0420","OBJECT_TYPE":"PAYLOAD","TLE_LINE2":"2 51806  53.2193 157.2870 0002328  54.2696 124.0420 15.08848701  1301","MEAN_ELEMENT_THEORY":"SGP4","RA_OF_ASC_NODE":"157.2870","MEAN_MOTION_DOT":"0.00000439","ELEMENT_SET_NO":"999","APOAPSIS":"541.329","CLASSIFICATION_TYPE":"U","FILE":"3521711","DECAY_DATE":null,"SEMIMAJOR_AXIS":"6917.854","EPHEMERIS_TYPE":"0","MEAN_MOTION_DDOT":"0.0000000000000","TLE_LINE1":"1 51806U 22017AQ  22206.91667824  .00000439  00000-0  45675-4 0  9994","TIME_SYSTEM":"UTC","ARG_OF_PERICENTER":"54.2696","OBJECT_NAME":"STARLINK-3581","ECCENTRICITY":"0.00023280","RCS_SIZE":"LARGE","REF_FRAME":"TEME","NORAD_CAT_ID":"51806","INCLINATION":"53.2193","PERIAPSIS":"538.108","MEAN_MOTION":"15.08848701","REV_AT_EPOCH":"130","OBJECT_ID":"2022-017AQ","EPOCH":"2022-07-25T22:00:00.999936","GP_ID":"208864835","PERIOD":"95.437","COUNTRY_CODE":"US","BSTAR":"0.00004567500000","SITE":"AFWTR","CENTER_NAME":"EARTH","LAUNCH_DATE":"2022-02-25"},{"MEAN_MOTION_DDOT":"0.0000000000000","TLE_LINE1":"1 51807U 22017AR  22206.91667824 -.00036524  00000-0 -22871-2 0  9992","TIME_SYSTEM":"UTC","ARG_OF_PERICENTER":"49.5672","OBJECT_NAME":"STARLINK-3606","MEAN_ANOMALY":"88.7664","TLE_LINE2":"2 51807  53.2177 157.2877 0002119  49.5672  88.7664 15.08860146 24410","OBJECT_TYPE":"PAYLOAD","MEAN_MOTION_DOT":"-0.00036524","RA_OF_ASC_NODE":"157.2877","MEAN_ELEMENT_THEORY":"SGP4","APOAPSIS":"541.150","CLASSIFICATION_TYPE":"U","ELEMENT_SET_NO":"999","FILE":"3521470","SEMIMAJOR_AXIS":"6917.819","EPHEMERIS_TYPE":"0","DECAY_DATE":null,"PERIOD":"95.436","COUNTRY_CODE":"US","BSTAR":"-0.00228710000000","SITE":"AFWTR","CENTER_NAME":"EARTH","LAUNCH_DATE":"2022-02-25","ECCENTRICITY":"0.00021190","RCS_SIZE":"LARGE","NORAD_CAT_ID":"51807","REF_FRAME":"TEME","INCLINATION":"53.2177","PERIAPSIS":"538.218","OBJECT_ID":"2022-017AR","MEAN_MOTION":"15.08860146","REV_AT_EPOCH":"2441","EPOCH":"2022-07-25T22:00:00.999936","GP_ID":"208835044"},{"TIME_SYSTEM":"UTC","OBJECT_NAME":"STARLINK-3609","ARG_OF_PERICENTER":"57.6186","TLE_LINE1":"1 51808U 22017AS  22206.91667824 -.00000054  00000-0  14739-4 0  9997","MEAN_MOTION_DDOT":"0.0000000000000","DECAY_DATE":null,"SEMIMAJOR_AXIS":"6917.849","EPHEMERIS_TYPE":"0","ELEMENT_SET_NO":"999","APOAPSIS":"541.223","CLASSIFICATION_TYPE":"U","FILE":"3521711","OBJECT_TYPE":"PAYLOAD","TLE_LINE2":"2 51808  53.2191 157.2871 0002181  57.6186 160.6833 15.08850124  1306","RA_OF_ASC_NODE":"157.2871","MEAN_ELEMENT_THEORY":"SGP4","MEAN_MOTION_DOT":"-0.00000054","MEAN_ANOMALY":"160.6833","CENTER_NAME":"EARTH","LAUNCH_DATE":"2022-02-25","BSTAR":"0.00001473900000","SITE":"AFWTR","COUNTRY_CODE":"US","PERIOD":"95.437","GP_ID":"208863833","MEAN_MOTION":"15.08850124","REV_AT_EPOCH":"130","OBJECT_ID":"2022-017AS","EPOCH":"2022-07-25T22:00:00.999936","INCLINATION":"53.2191","PERIAPSIS":"538.206","RCS_SIZE":"LARGE","ECCENTRICITY":"0.00021810","REF_FRAME":"TEME","NORAD_CAT_ID":"51808"},{"MEAN_ANOMALY":"108.2289","TLE_LINE2":"2 51809  53.2183 157.2838 0002235  50.0947 108.2289 15.08831385  1304","OBJECT_TYPE":"PAYLOAD","MEAN_ELEMENT_THEORY":"SGP4","RA_OF_ASC_NODE":"157.2838","MEAN_MOTION_DOT":"0.00000047","ELEMENT_SET_NO":"999","APOAPSIS":"541.318","CLASSIFICATION_TYPE":"U","FILE":"3521711","DECAY_DATE":null,"SEMIMAJOR_AXIS":"6917.907","EPHEMERIS_TYPE":"0","MEAN_MOTION_DDOT":"0.0000000000000","TLE_LINE1":"1 51809U 22017AT  22206.91667824  .00000047  00000-0  21064-4 0  9998","TIME_SYSTEM":"UTC","OBJECT_NAME":"STARLINK-3607","ARG_OF_PERICENTER":"50.0947","RCS_SIZE":"LARGE","ECCENTRICITY":"0.00022350","REF_FRAME":"TEME","NORAD_CAT_ID":"51809","INCLINATION":"53.2183","PERIAPSIS":"538.226","MEAN_MOTION":"15.08831385","REV_AT_EPOCH":"130","OBJECT_ID":"2022-017AT","EPOCH":"2022-07-25T22:00:00.999936","GP_ID":"208864585","PERIOD":"95.438","COUNTRY_CODE":"US","SITE":"AFWTR","BSTAR":"0.00002106400000","CENTER_NAME":"EARTH","LAUNCH_DATE":"2022-02-25"},{"MEAN_ANOMALY":"0.3534","TLE_LINE2":"2 51810  53.2164 147.2661 0001529  87.7498   0.3534 15.08847549 24502","OBJECT_TYPE":"PAYLOAD","MEAN_MOTION_DOT":"-0.00011206","MEAN_ELEMENT_THEORY":"SGP4","RA_OF_ASC_NODE":"147.2661","CLASSIFICATION_TYPE":"U","APOAPSIS":"540.780","ELEMENT_SET_NO":"999","FILE":"3521476","EPHEMERIS_TYPE":"0","SEMIMAJOR_AXIS":"6917.857","DECAY_DATE":null,"MEAN_MOTION_DDOT":"0.0000000000000","TLE_LINE1":"1 51810U 22017AU  22206.91667824 -.00011206  00000-0 -68693-3 0  9999","TIME_SYSTEM":"UTC","OBJECT_NAME":"STARLINK-3613","ARG_OF_PERICENTER":"87.7498","ECCENTRICITY":"0.00015290","RCS_SIZE":"LARGE","NORAD_CAT_ID":"51810","REF_FRAME":"TEME","INCLINATION":"53.2164","PERIAPSIS":"538.665","OBJECT_ID":"2022-017AU","MEAN_MOTION":"15.08847549","REV_AT_EPOCH":"2450","EPOCH":"2022-07-25T22:00:00.999936","GP_ID":"208835062","PERIOD":"95.437","COUNTRY_CODE":"US","BSTAR":"-0.00068693000000","SITE":"AFWTR","CENTER_NAME":"EARTH","LAUNCH_DATE":"2022-02-25"},{"SITE":"AFWTR","BSTAR":"0.00001032600000","CENTER_NAME":"EARTH","LAUNCH_DATE":"2022-02-25","PERIOD":"95.437","COUNTRY_CODE":"US","OBJECT_ID":"2022-017AV","MEAN_MOTION":"15.08846656","REV_AT_EPOCH":"130","EPOCH":"2022-07-25T22:00:00.999936","GP_ID":"208863084","ECCENTRICITY":"0.00023710","RCS_SIZE":"LARGE","NORAD_CAT_ID":"51811","REF_FRAME":"TEME","PERIAPSIS":"538.085","INCLINATION":"53.2182","TLE_LINE1":"1 51811U 22017AV  22206.91667824 -.00000124  00000-0  10326-4 0  9997","TIME_SYSTEM":"UTC","OBJECT_NAME":"STARLINK-3569","ARG_OF_PERICENTER":"56.5323","MEAN_MOTION_DDOT":"0.0000000000000","APOAPSIS":"541.365","ELEMENT_SET_NO":"999","CLASSIFICATION_TYPE":"U","FILE":"3521711","EPHEMERIS_TYPE":"0","SEMIMAJOR_AXIS":"6917.860","DECAY_DATE":null,"MEAN_ANOMALY":"141.7797","TLE_LINE2":"2 51811  53.2182 157.2839 0002371  56.5323 141.7797 15.08846656  1300","OBJECT_TYPE":"PAYLOAD","MEAN_MOTION_DOT":"-0.00000124","RA_OF_ASC_NODE":"157.2839","MEAN_ELEMENT_THEORY":"SGP4"}];
